STARLINK-37815          
1 69434U 26126Q   26193.57795758  .00172092  00000+0  11308-2 0  9992
2 69434  97.2822  54.8168 0001567  10.3548 349.7749 15.75205157  6748
STARLINK-37801          
1 69435U 26126R   26193.56383833  .00260302  00000+0  16772-2 0  9991
2 69435  97.2828  54.8369 0000407 122.6391 237.4914 15.75412118  6792
STARLINK-37800          
1 69436U 26126S   26193.56595667  .00265185  00000+0  17077-2 0  9995
2 69436  97.2844  54.8323 0001186 138.8131 221.3224 15.75412020  6740
STARLINK-37792          
1 69437U 26126T   26193.58572498  .00201083  00000+0  13149-2 0  9998
2 69437  97.2810  54.9589 0002040  99.1728 260.9768 15.75235541  6800
STARLINK-37783          
1 69438U 26126U   26193.59383029  .00182324  00000+0  11982-2 0  9999
2 69438  97.2848  54.9509 0002405 353.7252   6.3982 15.75171874  6808
STARLINK-37771          
1 69439U 26126V   26193.58219087  .00186915  00000+0  12257-2 0  9997
2 69439  97.2822  54.8105 0001325  71.6120 288.5290 15.75211501  6743
STARLINK-37747          
1 69440U 26126W   26193.55113388  .00176842  00000+0  11580-2 0  9999
2 69440  97.2836  54.8544 0001436 104.0650 256.0775 15.75272524  6749
STARLINK-37629          
1 69443U 26127A   26193.81150538  .00215803  00000+0  13674-2 0  9997
2 69443  53.1614 135.0613 0002629 265.3373  94.7347 15.75386394  5443
STARLINK-37509          
1 69444U 26127B   26192.98249884  .00141180  00000+0  90677-3 0  9993
2 69444  53.1597 139.1326 0002128 138.0642 222.0541 15.75316024  5310
STARLINK-37641          
1 69445U 26127C   26193.22233877  .00161334  00000+0  10353-2 0  9992
2 69445  53.1557 137.7770 0000242 176.8013 183.3009 15.75268269  5350
STARLINK-37522          
1 69446U 26127D   26192.98217607  .00135660  00000+0  87248-3 0  9999
2 69446  53.1592 139.1352 0000544  67.5160 292.5918 15.75305645  5314
STARLINK-37640          
1 69447U 26127E   26193.84318081  .00262536  00000+0  16560-2 0  9995
2 69447  53.1603 134.5379 0001117 111.4626 248.6514 15.75352694  5454
STARLINK-37572          
1 69448U 26127F   26193.86166280  .00318386  00000+0  19873-2 0  9995
2 69448  53.1575 134.6591 0001608 140.9330 219.1806 15.75430385  5455
STARLINK-37643          
1 69449U 26127G   26193.86619816  .00194342  00000+0  12384-2 0  9998
2 69449  53.1546 134.6909 0003431 135.1701 224.9597 15.75320344  5455
STARLINK-37601          
1 69450U 26127H   26193.86587197  .00324088  00000+0  20288-2 0  9990
2 69450  53.1599 134.6862 0001470 168.3310 191.7744 15.75346762  5455
STARLINK-37578          
1 69451U 26127J   26193.40813792  .00140756  00000+0  90684-3 0  9990
2 69451  53.1560 136.7866 0001450 123.6302 236.4857 15.75247461  5384
STARLINK-37577          
1 69452U 26127K   26192.95040411  .00132619  00000+0  85592-3 0  9991
2 69452  53.1585 138.9196 0001576 347.2327  12.8653 15.75235598  5313
STARLINK-37500          
1 69453U 26127L   26193.84804714  .00303602  00000+0  18915-2 0  9991
2 69453  53.1576 134.5658 0002055 133.0097 227.1096 15.75515792  5451
STARLINK-37575          
1 69454U 26127M   26193.83443120  .00246611  00000+0  15530-2 0  9997
2 69454  53.1613 134.4774 0003013 125.4678 234.6624 15.75435652  5453
STARLINK-37642          
1 69455U 26127N   26193.85258554  .00178921  00000+0  11415-2 0  9991
2 69455  53.1519 134.5913 0002942 110.7361 249.3974 15.75343760  5450
STARLINK-37513          
1 69456U 26127P   26193.48056228  .00238664  00000+0  15138-2 0  9992
2 69456  53.1592 135.8060 0001109 176.5489 183.5540 15.75295472  5403
STARLINK-37563          
1 69457U 26127Q   26192.37971032  .00215729  00000+0  13697-2 0  9994
2 69457  53.1584 141.7568 0001330  77.3260 282.7909 15.75341887  5228
STARLINK-37565          
1 69458U 26127R   26193.82956497  .00188534  00000+0  12021-2 0  9997
2 69458  53.1583 134.4403 0001084  99.7553 260.3590 15.75329207  5459
STARLINK-37498          
1 69459U 26127S   26193.84771845  .00345073  00000+0  21429-2 0  9997
2 69459  53.1565 134.5597 0001410 137.9693 222.1436 15.75470517  5454
STARLINK-37384          
1 69460U 26127T   26193.45342858  .00136668  00000+0  88037-3 0  9991
2 69460  53.1587 136.3622 0001204 124.4669 235.6466 15.75265362  5399
STARLINK-37707          
1 69461U 26127U   26193.82989240  .00336304  00000+0  20990-2 0  9997
2 69461  53.1585 134.4431 0001110 131.7376 228.3740 15.75379582  5458
STARLINK-37525          
1 69462U 26127V   26193.82502550  .00267903  00000+0  16824-2 0  9992
2 69462  53.1572 134.4093 0000859 120.0806 240.0299 15.75437392  5451
STARLINK-37526          
1 69463U 26127W   26193.83335647 -.00057696  00000+0 -37440-3 0  9991
2 69463  53.1564 134.3171 0001274  98.2997 332.9759 15.75260596  6080
STARLINK-37574          
1 69464U 26127X   26193.44468315  .00097597  00000+0  63305-3 0  9999
2 69464  53.1565 136.3012 0001022  96.1686 263.9451 15.75255956  5390
STARLINK-37535          
1 69465U 26127Y   26193.43981118  .00154360  00000+0  99151-3 0  9990
2 69465  53.1576 136.2665 0000825 144.9903 215.1171 15.75269980  5390
