OBJECT_NAME,OBJECT_ID,EPOCH,MEAN_MOTION,ECCENTRICITY,INCLINATION,RA_OF_ASC_NODE,ARG_OF_PERICENTER,MEAN_ANOMALY,EPHEMERIS_TYPE,CLASSIFICATION_TYPE,NORAD_CAT_ID,ELEMENT_SET_NO,REV_AT_EPOCH,BSTAR,MEAN_MOTION_DOT,MEAN_MOTION_DDOT
STARLINK-37815,2026-126Q,2026-07-12T13:52:15.534912,15.75205157,.0001567,97.2822,54.8168,10.3548,349.7749,0,U,69434,999,674,.11308E-2,.172092E-2,0
STARLINK-37801,2026-126R,2026-07-12T13:31:55.631712,15.75412118,.0000407,97.2828,54.8369,122.6391,237.4914,0,U,69435,999,679,.16772E-2,.260302E-2,0
STARLINK-37800,2026-126S,2026-07-12T13:34:58.656288,15.75412020,.00011867,97.2844,54.8323,138.8131,221.3224,0,U,69436,999,674,.17076739E-2,.265185E-2,0
STARLINK-37792,2026-126T,2026-07-12T14:03:26.638272,15.75235541,.000204,97.2810,54.9589,99.1728,260.9768,0,U,69437,999,680,.13149E-2,.201083E-2,0
STARLINK-37783,2026-126U,2026-07-12T14:15:06.937056,15.75171874,.0002405,97.2848,54.9509,353.7252,6.3982,0,U,69438,999,680,.11982E-2,.182324E-2,0
STARLINK-37771,2026-126V,2026-07-12T13:58:21.291168,15.75211501,.0001325,97.2822,54.8105,71.6120,288.5290,0,U,69439,999,674,.12257E-2,.186915E-2,0
STARLINK-37747,2026-126W,2026-07-12T13:13:37.967232,15.75272524,.00014365,97.2836,54.8544,104.0650,256.0775,0,U,69440,999,674,.11579714E-2,.176842E-2,0
STARLINK-37629,2026-127A,2026-07-12T19:28:34.064832,15.75386394,.0002629,53.1614,135.0613,265.3373,94.7347,0,U,69443,999,544,.13674E-2,.215803E-2,0
STARLINK-37509,2026-127B,2026-07-11T23:34:47.899776,15.75316024,.00021287,53.1597,139.1326,138.0642,222.0541,0,U,69444,999,531,.90677122E-3,.14118E-2,0
STARLINK-37641,2026-127C,2026-07-12T05:20:10.069728,15.75268269,.0000242,53.1557,137.7770,176.8013,183.3009,0,U,69445,999,535,.10353E-2,.161334E-2,0
STARLINK-37522,2026-127D,2026-07-11T23:34:20.012448,15.75305645,.00005445,53.1592,139.1352,67.5160,292.5918,0,U,69446,999,531,.87247827E-3,.13566E-2,0
STARLINK-37640,2026-127E,2026-07-12T20:14:10.821984,15.75352694,.0001117,53.1603,134.5379,111.4626,248.6514,0,U,69447,999,545,.1656E-2,.262536E-2,0
STARLINK-37572,2026-127F,2026-07-12T20:40:47.665920,15.75430385,.0001608,53.1575,134.6591,140.9330,219.1806,0,U,69448,999,545,.19873E-2,.318386E-2,0
STARLINK-37643,2026-127G,2026-07-12T20:47:19.521024,15.75320344,.0003431,53.1546,134.6909,135.1701,224.9597,0,U,69449,999,545,.12384E-2,.194342E-2,0
STARLINK-37601,2026-127H,2026-07-12T20:46:51.338208,15.75346762,.000147,53.1599,134.6862,168.3310,191.7744,0,U,69450,999,545,.20288E-2,.324088E-2,0
STARLINK-37578,2026-127J,2026-07-12T09:47:43.116288,15.75247461,.000145,53.1560,136.7866,123.6302,236.4857,0,U,69451,999,538,.90683881E-3,.140756E-2,0
STARLINK-37577,2026-127K,2026-07-11T22:48:34.915104,15.75235598,.00015769,53.1585,138.9196,347.2327,12.8653,0,U,69452,999,531,.85591796E-3,.132619E-2,0
STARLINK-37500,2026-127L,2026-07-12T20:21:11.272896,15.75515792,.0002055,53.1576,134.5658,133.0097,227.1096,0,U,69453,999,545,.18915E-2,.303602E-2,0
STARLINK-37575,2026-127M,2026-07-12T20:01:34.855680,15.75435652,.0003013,53.1613,134.4774,125.4678,234.6624,0,U,69454,999,545,.1553E-2,.246611E-2,0
STARLINK-37642,2026-127N,2026-07-12T20:27:43.390656,15.75343760,.0002942,53.1519,134.5913,110.7361,249.3974,0,U,69455,999,545,.11415E-2,.178921E-2,0
STARLINK-37513,2026-127P,2026-07-12T11:32:00.580992,15.75295472,.00011097,53.1592,135.8060,176.5489,183.5540,0,U,69456,999,540,.15138215E-2,.238664E-2,0
STARLINK-37563,2026-127Q,2026-07-11T09:06:46.971648,15.75341887,.000133,53.1584,141.7568,77.3260,282.7909,0,U,69457,999,522,.13697162E-2,.215729E-2,0
STARLINK-37565,2026-127R,2026-07-12T19:54:34.413408,15.75329207,.0001084,53.1583,134.4403,99.7553,260.3590,0,U,69458,999,545,.12021E-2,.188534E-2,0
STARLINK-37498,2026-127S,2026-07-12T20:20:42.874080,15.75470517,.000141,53.1565,134.5597,137.9693,222.1436,0,U,69459,999,545,.21429E-2,.345073E-2,0
STARLINK-37384,2026-127T,2026-07-12T10:52:56.229312,15.75265362,.00012043,53.1587,136.3622,124.4669,235.6466,0,U,69460,999,539,.88037075E-3,.136668E-2,0
STARLINK-37707,2026-127U,2026-07-12T19:55:02.703360,15.75379582,.000111,53.1585,134.4431,131.7376,228.3740,0,U,69461,999,545,.2099E-2,.336304E-2,0
STARLINK-37525,2026-127V,2026-07-12T19:48:02.203200,15.75437392,.0000859,53.1572,134.4093,120.0806,240.0299,0,U,69462,999,545,.16824E-2,.267903E-2,0
STARLINK-37526,2026-127W,2026-07-12T20:00:01.999008,15.75260596,.0001274,53.1564,134.3171,98.2997,332.9759,0,U,69463,999,608,-.3744E-3,-.57696E-3,0
STARLINK-37574,2026-127X,2026-07-12T10:40:20.624160,15.75255956,.00010227,53.1565,136.3012,96.1686,263.9451,0,U,69464,999,539,.63304727E-3,.97597E-3,0
STARLINK-37535,2026-127Y,2026-07-12T10:33:19.685952,15.75269980,.00008254,53.1576,136.2665,144.9903,215.1171,0,U,69465,999,539,.99151407E-3,.15436E-2,0
